"","X","name","city","country","region","members","fullurl","created","past_events","upcoming_events","visibility","last_event"
"12",12,"LA R users group","Santa Monica","USA","US/Canada",2018,"https://www.meetup.com/Los-Angeles-R-Users-Group-Data-Science/","2009-03-21",103,1,"public","2019-09-27"
"13",13,"R Generation","Dublin","Ireland","Europe",802,"https://www.meetup.com/Dublin-R-Generation/","2018-08-05",7,1,"public","2019-07-02"
"14",14,"R User Group Eindhoven","Eindhoven","Netherlands","Europe",47,"https://www.meetup.com/R-User-Group-Eindhoven/","2019-02-28",2,0,"public","2019-07-07"
"15",15,"Las Vegas R User Group","Las Vegas","USA","US/Canada",24,"https://www.meetup.com/Las-Vegas-R-User-Group/","2018-09-28",0,0,"public","1970-01-01"
"16",16,"Colchester R Meetup","Colchester","United Kingdom","Europe",178,"https://www.meetup.com/Colchester-R-Meetup/","2018-04-16",9,1,"public","2019-05-16"
"17",17,"Phoenix R User Group","Phoenix","USA","US/Canada",892,"https://www.meetup.com/Phoenix-R-User-Group/","2016-04-16",18,0,"public","2018-08-24"
"18",18,"Oxford R User Group","Oxford","United Kingdom","Europe",538,"https://www.meetup.com/Oxford-R-User-Group/","2017-08-17",19,1,"public","2019-09-16"
"19",19,"Chico R Users Group","Chico","USA","US/Canada",52,"https://www.meetup.com/Chico-R-Users-Group/","2015-12-07",77,0,"public","2019-08-14"
"20",20,"Cebu R Users Group (CRUG)","Cebu","Philippines","Asia",59,"https://www.meetup.com/Cebu-R-Users-Group-CRUG/","2014-09-17",2,0,"public_limited","2015-03-19"
"22",22,"Orange County R Users Group (OCRUG)","Irvine","USA","US/Canada",557,"https://www.meetup.com/OC-RUG/","2014-12-17",36,3,"public","2019-09-25"
"23",23,"Poznan R Users Group (PAZUR)","Poznan","Poland","Europe",591,"https://www.meetup.com/Poznan-R-User-Group-PAZUR/","2015-11-27",21,0,"public","2019-06-18"
"24",24,"Rhus - useR group","Århus","Denmark","Europe",203,"https://www.meetup.com/Rhus-useR-group/","2015-01-19",2,0,"public","2015-06-30"
"25",25,"Lansing Area R Users Group","East Lansing","USA","US/Canada",218,"https://www.meetup.com/Lansing-Area-R-Users-Group/","2012-01-24",30,0,"public","2019-07-15"
"26",26,"The Chicago R User Group (CRUG)","Chicago","USA","US/Canada",3730,"https://www.meetup.com/Chicago-R-User-Group/","2010-04-05",74,0,"public","2019-08-20"
"27",27,"Milwaukee R Meetup","Milwaukee","USA","US/Canada",291,"https://www.meetup.com/Milwaukee-R-Meetup/","2015-06-05",8,0,"public","2019-05-24"
"28",28,"Data Analytics GDL User Group","Guadalajara","Mexico","Latin America",284,"https://www.meetup.com/Data-Analytics-GDL-User-Group/","2017-04-13",2,0,"public","2017-12-08"
"30",30,"Bengaluru R UseR Group (BRUG)","Bangalore","India","Asia",1428,"https://www.meetup.com/BengaluRu-use-R-gRoup/","2018-08-28",10,0,"public","2019-09-21"
"32",32,"Bhavnagar Data Analysis Meetup","Bhavnagar","India","Asia",27,"https://www.meetup.com/Bhavnagar-Data-Analysis-Meetup/","2014-06-15",0,0,"public","1970-01-01"
"33",33,"PhillyR","Philadelphia","USA","US/Canada",823,"https://www.meetup.com/PhillyR/","2016-04-19",17,0,"public","2019-09-20"
"36",36,"CaRdiff - the Cardiff R User Group","Cardiff","United Kingdom","Europe",648,"https://www.meetup.com/Cardiff-R-User-Group/","2014-12-19",123,1,"public","2019-09-12"
"37",37,"Central Iowa R User Group","Des Moines","USA","US/Canada",634,"https://www.meetup.com/Central-Iowa-R-User-Group/","2015-06-15",186,0,"public","2019-09-28"
"38",38,"St. Petersburg R User Group","St. Petersburg","Russia","Europe",994,"https://www.meetup.com/St-Petersburg-R-User-Group/","2015-03-11",14,1,"public","2019-04-14"
"39",39,"R User Group Nepal","Kathmandu","Nepal","Asia",120,"https://www.meetup.com/rugnepal/","2018-09-16",3,1,"public","2019-09-20"
"40",40,"Cork (Ireland) R-Users Group","Cork","Ireland","Europe",637,"https://www.meetup.com/Cork-Ireland-R-Users-Group/","2015-07-01",48,0,"public","2019-09-19"
"41",41,"Exeter R Users Group (Exeter, Devon, England)","Exeter","United Kingdom","Europe",240,"https://www.meetup.com/Exeter-R-Users-Group-Exeter-Devon-England/","2014-01-14",16,0,"public","2019-09-09"
"42",42,"Nairobi R Users Group","Nairobi","Kenya","Africa",50,"https://www.meetup.com/Nairobi-R-Users-Group/","2017-03-30",0,0,"public","1970-01-01"
"43",43,"Cairo R Users Group","Cairo","Egypt","Africa",2036,"https://www.meetup.com/Cairo-R-Users-Group/","2015-04-30",4,0,"public","2019-06-19"
"44",44,"STWUR - Wroclaw R Users Group Meetup","Wroclaw","Poland","Europe",649,"https://www.meetup.com/Wroclaw-R-Users-Group/","2017-01-17",25,0,"public","2019-06-13"
"45",45,"Detroit useR Group (R Programming Language)","Birmingham","USA","US/Canada",310,"https://www.meetup.com/Detroit-useR-Group-R-Programming-Language/","2013-06-19",6,0,"public","2017-01-08"
"46",46,"Greater Toronto Area (GTA) R User Group","Toronto","Canada","US/Canada",1398,"https://www.meetup.com/Greater-Toronto-Area-GTA-R-Users-Group/","2010-10-07",34,1,"public","2019-09-10"
"47",47,"Adelaide R Users Group","Adelaide","Australia","Australia",273,"https://www.meetup.com/Adelaide-R-Users/","2016-11-07",4,0,"public","2019-09-25"
"48",48,"Budapest Users of R Network","Budapest","Hungary","Europe",1608,"https://www.meetup.com/Budapest-Users-of-R-Network/","2013-08-11",54,0,"public","2019-09-05"
"49",49,"Meetup R Nantes","Nantes","France","Europe",670,"https://www.meetup.com/Meetup-R-Nantes/","2016-06-27",20,3,"public","2019-09-26"
"50",50,"Tampa R Users Group","Tampa","USA","US/Canada",451,"https://www.meetup.com/Tampa-R-Users-Group/","2017-07-28",23,0,"public","2019-09-24"
"51",51,"Berlin R Users Group","Berlin","Germany","Europe",2028,"https://www.meetup.com/Berlin-R-Users-Group/","2015-01-04",43,0,"public","2019-08-29"
"52",52,"Kampala R Users Group","Kampala","Uganda","Africa",721,"https://www.meetup.com/Kampala-R-Users-Group/","2015-04-28",2,0,"public","2018-01-20"
"53",53,"Dar Es Salaam R Users Group","Dar es Salaam","Tanzania","Africa",757,"https://www.meetup.com/DarEs-Salaam-R-users/","2015-04-30",1,0,"public","2017-09-23"
"54",54,"Johannesburg R User Group (R Programming Language)","Johannesburg","South Africa","Africa",784,"https://www.meetup.com/Joburg-R-Users-Group/","2015-05-03",9,0,"public","2018-12-11"
"55",55,"NottinghamR - Nottingham R Users Group","Nottingham","United Kingdom","Europe",371,"https://www.meetup.com/NottinghamR-Nottingham-R-Users-Group/","2016-01-08",7,0,"public_limited","2018-07-25"
"56",56,"Spotkania Entuzjastów R-Warsaw RUG Meetup & R-Ladies Warsaw","Warsaw","Poland","Europe",2093,"https://www.meetup.com/Spotkania-Entuzjastow-R-Warsaw-R-Users-Group-Meetup/","2014-10-06",44,0,"public","2019-06-27"
"57",57,"Bmore UseR Group","Baltimore","USA","US/Canada",135,"https://www.meetup.com/Bmore-UseR-Group/","2016-08-26",1,0,"public","2017-09-20"
"58",58,"Cape Fear R Users Group","Wilmington","USA","US/Canada",29,"https://www.meetup.com/Cape-Fear-R-Users-Group/","2017-09-20",7,0,"public","2018-11-29"
"59",59,"Pittsburgh useR Group","Pittsburgh","USA","US/Canada",563,"https://www.meetup.com/Pittsburgh-useR-Group/","2013-03-26",35,0,"public","2019-08-21"
"60",60,"Columbus useR Group","Columbus","USA","US/Canada",199,"https://www.meetup.com/Columbus-useR-Group/","2014-03-17",3,0,"public","2015-01-28"
"61",61,"Western Australia R Group (WARG)","Perth","Australia","Australia",177,"https://www.meetup.com/Western-Australia-R-Group-WARG/","2014-06-27",9,0,"public","2016-07-21"
"62",62,"Greater Boston useR Group (R Programming Language)","Boston","USA","US/Canada",3987,"https://www.meetup.com/Boston-useR/","2011-02-10",57,2,"public","2019-09-10"
"63",63,"Boston R/Bioconductor for Genomics","Boston","USA","US/Canada",718,"https://www.meetup.com/Boston-R-Bioconductor-for-genomics/","2016-08-03",18,6,"public","2019-09-25"
"64",64,"Santa Barbara R Users Group","Santa Barbara","USA","US/Canada",370,"https://www.meetup.com/Santa-Barbara-R-Users-Group/","2013-02-27",21,0,"public","2019-09-19"
"65",65,"Abidjan R users Meetup","Abidjan","Ivory Coast","Africa",352,"https://www.meetup.com/Abidjan-R-users-Meetup/","2018-03-27",4,3,"public","2019-05-04"
"66",66,"Riyadh UseR Group","Riyadh","Saudi Arabia","Asia",361,"https://www.meetup.com/Riyadh-UseR-Group/","2016-12-06",1,0,"public","2016-12-15"
"67",67,"Bogotá R Users Group Meetup (Shiny data apps)","Bogotá","Colombia","Latin America",135,"https://www.meetup.com/Bogota-R-Users-Group-Meetup-Shiny-data-apps/","2014-12-27",1,0,"public","2015-01-22"
"68",68,"Cambridge R Users Group Meetup","Cambridge","United Kingdom","Europe",347,"https://www.meetup.com/Cambridge-R-Users-Group-Meetup/","2014-10-28",6,0,"public","2016-11-23"
"69",69,"DuPage R Meetup","Lisle","USA","US/Canada",173,"https://www.meetup.com/DuPage-R-Meetup/","2018-09-18",5,1,"public","2019-04-17"
"70",70,"Intro to R, Data Analytics - Training and Workshop","New York","USA","US/Canada",289,"https://www.meetup.com/Intro-to-R-Basics-Free-Training-and-Workshop/","2017-04-07",2,0,"public","2017-07-12"
"71",71,"New York R User Group","New York","USA","US/Canada",1024,"https://www.meetup.com/New-York-R-Users-Group/","2013-08-24",43,3,"public","2016-11-02"
"72",72,"CopenhagenR - useR Group","Copenhagen","Denmark","Europe",1260,"https://www.meetup.com/CopenhagenR-useR-Group/","2013-09-03",33,1,"public","2019-09-26"
"74",74,"Gulf Coast useR Group (R Programming Language)","Biloxi","USA","US/Canada",33,"https://www.meetup.com/Gulf-Coast-useR-Group-R-Programming-Language/","2019-02-27",3,0,"public","2019-05-17"
"75",75,"Montreal R User Group","Montréal","Canada","US/Canada",1581,"https://www.meetup.com/Montreal-R-User-Group/","2012-03-13",37,0,"public","2017-05-31"
"76",76,"Zurich R User Group","Zürich","Switzerland","Europe",1624,"https://www.meetup.com/Zurich-R-User-Group/","2015-11-18",26,1,"public","2019-09-16"
"77",77,"Mastering R at MI^2","Warsaw","Poland","Europe",96,"https://www.meetup.com/Mastering-R-at-MI-2/","2018-11-06",1,0,"public","2018-12-03"
"78",78,"Grupo de Usuarios de R de Madrid","Madrid","Spain","Europe",2269,"https://www.meetup.com/Grupo-de-Usuarios-de-R-de-Madrid/","2015-02-20",39,0,"public","2019-09-18"
"79",79,"Winnipeg R User Group","Winnipeg","Canada","US/Canada",75,"https://www.meetup.com/Winnipeg-R-User-Group/","2018-11-03",3,0,"public","2019-09-28"
"80",80,"Applied R Munich","München","Germany","Europe",1155,"https://www.meetup.com/Applied-R-Munich/","2015-10-16",13,0,"public","2019-05-28"
"82",82,"Austin R User Group","Austin","USA","US/Canada",1644,"https://www.meetup.com/Austin-R-User-Group/","2012-01-16",50,0,"public","2019-06-11"
"83",83,"Inland Northwest R User Group (INRUG)","Spokane","USA","US/Canada",50,"https://www.meetup.com/Inland-Northwest-R-User-Group-INRUG/","2015-03-29",31,1,"public","2019-06-29"
"84",84,"Hong Kong R User Group","Hong Kong","Hong Kong","Asia",170,"https://www.meetup.com/Hong-Kong-R-User-Group/","2018-05-02",4,0,"public","2019-07-20"
"86",86,"Panama R User's Group","Panamá","Panama","Latin America",442,"https://www.meetup.com/Panama-R-Users-Group/","2017-02-13",17,0,"public","2019-09-14"
"87",87,"Sevilla R Users","Sevilla","Spain","Europe",532,"https://www.meetup.com/Sevilla-R-users/","2017-03-13",22,1,"public","2019-06-04"
"88",88,"Meetup de Grupo de Usuarios de R de Málaga","Málaga","Spain","Europe",114,"https://www.meetup.com/Meetup-de-Grupo-de-Usuarios-de-R-de-Malaga/","2019-02-15",6,0,"public","2019-09-26"
"89",89,"Greater Cleveland R Group","Independence","USA","US/Canada",673,"https://www.meetup.com/Cleveland-UseR-Group/","2012-01-16",58,2,"public","2019-09-25"
"90",90,"Portsmouth R User Group Meetup","Portsmouth","United Kingdom","Europe",131,"https://www.meetup.com/Portsmouth-R-User-Group/","2018-06-26",5,1,"public","2019-07-09"
"92",92,"Ann Arbor R User Group","Ann Arbor","USA","US/Canada",753,"https://www.meetup.com/Ann-Arbor-R-User-Group/","2014-05-26",57,1,"public","2019-08-14"
"93",93,"IndyUseR Group","Indianapolis","USA","US/Canada",518,"https://www.meetup.com/Indy-useR-Group/","2013-06-28",55,2,"public","2019-09-17"
"94",94,"Trenton R Users (TRU)","Trenton","USA","US/Canada",472,"https://www.meetup.com/TRUgroup/","2015-01-27",54,3,"public","2019-09-21"
"95",95,"Patra's R Users Group","Pátrai","Greece","Europe",122,"https://www.meetup.com/Patras-R-Users-Group/","2015-05-07",3,0,"public","2015-10-07"
"96",96,"ZagReb","Zagreb","Croatia","Europe",260,"https://www.meetup.com/zagreb-r-group/","2017-03-30",5,0,"public","2018-04-04"
"98",98,"R User Group Finland","Helsinki","Finland","Europe",253,"https://www.meetup.com/R-User-Group-Finland/","2015-08-31",1,0,"public","2015-09-30"
"99",99,"Campinas R Users Meetup","Campinas","Brazil","Latin America",324,"https://www.meetup.com/Campinas-R-Users-Meetup/","2014-11-19",10,0,"public","2015-11-18"
"100",100,"UVa R Users Group","Charlottesville","USA","US/Canada",587,"https://www.meetup.com/UVa-R-Users-Group/","2014-08-04",23,0,"public","2019-08-27"
"101",101,"Heredia R User Group","Heredia","Costa Rica","Latin America",187,"https://www.meetup.com/Heredia-R-User-Group/","2018-04-10",1,0,"public","2018-05-30"
"102",102,"Bi[R]mingham R Meetup","Birmingham","USA","US/Canada",246,"https://www.meetup.com/Bi-R-mingham-R-Meetup/","2014-10-01",5,0,"public","2015-04-24"
"103",103,"Dallas R Users Group","Dallas","USA","US/Canada",2183,"https://www.meetup.com/Dallas-R-Users-Group/","2011-02-19",84,0,"public","2019-04-20"
"104",104,"The México City R Users Group","México City","Mexico","Latin America",154,"https://www.meetup.com/The-Mexico-City-R-Users-Group/","2014-02-05",4,0,"public","2015-12-02"
"105",105,"Utah County R User Group","Provo","USA","US/Canada",99,"https://www.meetup.com/utah-county-rug/","2019-01-22",4,0,"public","2019-07-18"
"106",106,"Wellington R Users Group (WRUG)","Wellington","New Zealand","Australia",330,"https://www.meetup.com/Wellington-R-Users-Group-WRUG/","2013-09-04",12,0,"public","2018-02-27"
"107",107,"R User Group - Philippines","Manila","Philippines","Asia",1193,"https://www.meetup.com/R-User-Group-Philippines/","2013-08-20",68,3,"public","2019-09-18"
"108",108,"Charlotte R Users Group","Charlotte","USA","US/Canada",768,"https://www.meetup.com/Charlotte-R-Users-Group/","2013-12-17",27,3,"public","2019-09-17"
"109",109,"AalborgRUG","Aalborg","Denmark","Europe",169,"https://www.meetup.com/AalborgRUG/","2017-09-30",7,1,"public","2019-08-19"
"110",110,"Greater Portland useR Group (R programming language)","Portland","USA","US/Canada",132,"https://www.meetup.com/Greater-Portland-useR-Group/","2018-08-10",8,0,"public","2019-09-26"
"111",111,"Prague R Meetup Group","Prague","Czech Republic","Europe",665,"https://www.meetup.com/Prague-R-Meetup-Group/","2015-03-16",8,0,"public","2019-05-22"
"112",112,"Adventures in R Meetup","Newcastle Upon Tyne","United Kingdom","Europe",126,"https://www.meetup.com/Adventures-in-R-Meetup/","2018-08-16",18,0,"public","2019-01-22"
"113",113,"RVA R User's Group.","Richmond","USA","US/Canada",50,"https://www.meetup.com/RVA-R-Users-Group/","2018-01-29",8,0,"public","2019-05-22"
"114",114,"San Carlos R User Group","Quesada","Costa Rica","Latin America",594,"https://www.meetup.com/San-Carlos-R-User-Group/","2016-01-20",35,0,"public","2019-08-10"
"115",115,"Salt Lake City R Users Group","Salt Lake City","USA","US/Canada",603,"https://www.meetup.com/slc-rug/","2017-11-06",20,1,"public","2019-09-26"
"116",116,"Oslo useR! Group","Oslo","Norway","Europe",845,"https://www.meetup.com/Oslo-useR-Group/","2015-02-11",23,1,"public","2019-09-12"
"117",117,"Belo Horizonte R Users Group","Belo Horizonte","Brazil","Latin America",136,"https://www.meetup.com/Belo-Horizonte-R-Users-Group/","2016-05-13",0,0,"public","1970-01-01"
"118",118,"Malaysia R User Public Group","Kuala Lumpur","Malaysia","Asia",200,"https://www.meetup.com/Malaysia-R-User-Group/","2018-09-25",2,1,"public","2019-03-12"
"119",119,"Tecate BC México R Users Group Meetup","Tecate","Mexico","Latin America",15,"https://www.meetup.com/Tecate-BC-Mexico-R-Users-Group-Meetup/","2014-09-11",0,0,"public","1970-01-01"
"120",120,"Brisbane Users of R Group - BURGr","Brisbane","Australia","Australia",697,"https://www.meetup.com/Brisbane-Users-of-R-Group-BURGr/","2016-05-12",49,0,"public","2019-07-17"
"121",121,"Twin Cities R User Group (TCRUG)","Minneapolis","USA","US/Canada",1849,"https://www.meetup.com/twincitiesrug/","2011-01-26",65,0,"public","2019-07-19"
"122",122,"Denver R User Group","Denver","USA","US/Canada",1435,"https://www.meetup.com/DenverRUG/","2010-08-25",73,0,"public","2019-09-25"
"123",123,"R User Group - Singapore (RUGS)","Singapore","Singapore","Asia",2006,"https://www.meetup.com/R-User-Group-SG/","2010-07-26",76,2,"public_limited","2019-02-13"
"124",124,"Saint Louis R User Group","Saint Louis","USA","US/Canada",903,"https://www.meetup.com/Saint-Louis-RUG/","2011-01-26",65,3,"public","2019-08-07"
"125",125,"South Central PA R-Ladies","Middletown","USA","US/Canada",4,"https://www.meetup.com/South-Central-PA-R-Ladies/","2019-08-24",0,0,"public","1970-01-01"
"126",126,"Portland R User Group","Portland","USA","US/Canada",1606,"https://www.meetup.com/portland-r-user-group/","2010-08-04",148,2,"public","2019-09-21"
"127",127,"Wiesbaden R User Group","Wiesbaden","Germany","Europe",348,"https://www.meetup.com/Wiesbaden-R-Users-Group/","2011-01-28",45,0,"public","2019-08-20"
"128",128,"R-Lab Milano","Milano","Italy","Europe",466,"https://www.meetup.com/R-Lab-Milano/","2017-02-23",10,0,"public","2019-03-25"
"129",129,"R Users Monterrey","Monterrey","Mexico","Latin America",50,"https://www.meetup.com/R-Users-Monterrey/","2017-08-10",1,0,"public","2019-08-14"
"130",130,"R Users Group, Gainesville, FL","Gainesville","USA","US/Canada",452,"https://www.meetup.com/R-Users-Group-Gainesville-FL/","2013-05-22",33,0,"public","2018-02-06"
"131",131,"R Users Group Chennai","Chennai","India","Asia",373,"https://www.meetup.com/R-Users-Group-Chennai/","2014-05-25",3,0,"public","2014-11-08"
"132",132,"R <- Slovakia","Bratislava","Slovakia","Europe",30,"https://www.meetup.com/R-Users-Slovakia/","2019-04-22",1,0,"public","2019-09-16"
"133",133,"Turkish Community of R","Ankara","Turkey","Europe",1127,"https://www.meetup.com/tcr-users/","2013-03-08",4,0,"public","2019-05-23"
"134",134,"Cali R Users Group (Cali)","Cali","Colombia","Latin America",470,"https://www.meetup.com/R-Users-Group-Cali/","2014-12-23",8,0,"public","2017-11-04"
"135",135,"Vancouver R Users Group (data analysis / statistics)","Vancouver","Canada","US/Canada",1015,"https://www.meetup.com/Vancouver-R-Users-Group-data-analysis-statistics/","2011-02-09",20,0,"public","2015-08-03"
"136",136,"SheffieldR - Sheffield R Users Group","Sheffield","United Kingdom","Europe",425,"https://www.meetup.com/SheffieldR-Sheffield-R-Users-Group/","2013-03-28",49,1,"public","2019-08-06"
"137",137,"Kyiv useR! Group","Kyiv","Ukraine","Europe",567,"https://www.meetup.com/Kyiv-useR-Group/","2015-04-21",7,0,"public","2018-08-15"
"138",138,"Auckland R Users Group (AKLRUG)","Auckland","New Zealand","Australia",1260,"https://www.meetup.com/Auckland-R-Users-Group-AKLRUG/","2013-01-08",20,0,"public","2019-09-12"
"139",139,"mumbai-r-user-group","Mumbai","India","Asia",575,"https://www.meetup.com/mumbai-r-user-group/","2013-09-15",31,1,"public","2017-02-02"
"140",140,"DakaR R User Group","Dakar","Senegal","Africa",227,"https://www.meetup.com/DakaR-R-User-Group/","2013-10-23",6,0,"public","2019-09-28"
"141",141,"Delhi NCR useR Group (R programming language)","Delhi","India","Asia",178,"https://www.meetup.com/Delhi-NCR-useR-Group-R-programming-language/","2018-05-28",3,0,"public","2019-07-20"
"142",142,"Atlanta R Users Group","Atlanta","USA","US/Canada",914,"https://www.meetup.com/R-Users-Atlanta/","2012-02-14",26,0,"public","2018-11-16"
"143",143,"Bozeman Area R useR Group","Bozeman","USA","US/Canada",152,"https://www.meetup.com/Bozeman-useR-Group-R-Programming-Language/","2013-05-30",25,0,"public","2018-03-02"
"144",144,"Offa R Users Group","Offa","Nigeria","Africa",169,"https://www.meetup.com/FEDPOFA-R-Users-Group/","2013-09-20",39,0,"public","2019-09-04"
"145",145,"Albany R Users Group","Albany","USA","US/Canada",287,"https://www.meetup.com/Albany-R-Users-Group/","2014-03-20",16,0,"public","2019-02-28"
"146",146,"New Delhi  UseR Group (R Programming Language)","Delhi","India","Asia",1452,"https://www.meetup.com/New-Delhi-R-UseR-Group/","2012-10-21",87,0,"public_limited","2018-08-18"
"147",147,"Leipzig R statistical computing","Leipzig","Germany","Europe",240,"https://www.meetup.com/Leipzig-R-statistical-computing/","2011-10-22",11,0,"public","2018-04-16"
"148",148,"Bay Area useR Group (R Programming Language)","San Francisco","USA","US/Canada",6276,"https://www.meetup.com/R-Users/","2008-07-17",141,1,"public","2019-09-04"
"149",149,"Sydney Users of  R Forum (SURF)","Sydney","Australia","Australia",2752,"https://www.meetup.com/R-Users-Sydney/","2010-06-06",110,0,"public","2019-08-14"
"150",150,"amst-R-dam","Amsterdam","Netherlands","Europe",1242,"https://www.meetup.com/amst-R-dam/","2010-09-09",33,0,"public","2019-06-20"
"151",151,"Connecticut R Users Group","New Haven","USA","US/Canada",276,"https://www.meetup.com/Conneticut-R-Users-Group/","2011-09-15",19,0,"public","2016-03-10"
"152",152,"Florianópolis R-NNQ R users group","Florianópolis","Brazil","Latin America",487,"https://www.meetup.com/Florianopolis-R-NNQ-R-users-group/","2016-05-06",17,0,"public","2019-09-26"
"153",153,"Melbourne Users of R Network (MelbURN)","Melbourne","Australia","Australia",2749,"https://www.meetup.com/MelbURN-Melbourne-Users-of-R-Network/","2010-08-04",93,2,"public","2019-09-09"
"328",328,"Lagos R User Group","Lagos","Nigeria","Africa",344,"https://www.meetup.com/LagosRUsers/","2019-03-10",3,0,"public","2019-09-28"
"334",334,"BelgradeR","Belgrade","Serbia","Europe",791,"https://www.meetup.com/BelgradeR/","2016-05-18",11,0,"public","2018-07-25"
"345",345,"Barcelona R User Group","Barcelona","Spain","Europe",742,"https://www.meetup.com/BarcelonaR/","2013-10-01",24,0,"public","2019-09-26"
"348",348,"Warwick R User Group (R Programming Language)","Coventry","United Kingdom","Europe",319,"https://www.meetup.com/Warwick-useRs/","2017-07-08",13,1,"public","2019-05-29"
"349",349,"R-Ladies Bari","Bari","Italy","Europe",35,"https://www.meetup.com/rladies-bari/","2018-05-17",7,0,"public","2019-07-23"
"351",351,"Budapest Data & Pizza","Budapest","Hungary","Europe",83,"https://www.meetup.com/Budapest-Data-Pizza/","2019-09-02",0,0,"public","1970-01-01"
"352",352,"LondonR","London","United Kingdom","Europe",3329,"https://www.meetup.com/LondonR/","2010-02-05",74,0,"public","2019-09-24"
"354",354,"eRka / Cracow R Users Group","Kraków","Poland","Europe",820,"https://www.meetup.com/erkakrakow/","2014-10-19",27,0,"public","2019-06-12"
"386",386,"CalgaryR","Calgary","Canada","US/Canada",1020,"https://www.meetup.com/calgaryr/","2015-04-14",34,2,"public","2019-09-18"
"387",387,"R-Ladies Bariloche","San Carlos de Bariloche","Argentina","Latin America",140,"https://www.meetup.com/rladies-bariloche/","2018-05-10",5,2,"public","2019-05-20"
"391",391,"EswatiniUseR Group","Manzini","Swaziland","Africa",9,"https://www.meetup.com/EswatiniUseR/","2019-08-11",0,0,"public","1970-01-01"
"393",393,"R-Ladies Córdoba","Córdoba","Argentina","Latin America",102,"https://www.meetup.com/rladies-cordoba/","2018-04-11",2,0,"public","2018-08-28"
"394",394,"Valledupar Analítica R","Valledupar","Colombia","Latin America",140,"https://www.meetup.com/Valledupar-Analitica-R/","2018-06-17",6,0,"public","2019-06-22"
"395",395,"Barranquilla Analítica R","Barranquilla","Colombia","Latin America",356,"https://www.meetup.com/Barranquilla-Analitica-R/","2018-05-26",7,0,"public","2019-06-28"
"396",396,"New York Open Statistical Programming Meetup","New York","USA","US/Canada",10915,"https://www.meetup.com/nyhackr/","2009-03-12",110,0,"public","2019-09-19"
"397",397,"R-Ladies Buenos Aires","Buenos Aires","Argentina","Latin America",778,"https://www.meetup.com/rladies-buenos-aires/","2017-01-03",16,1,"public","2019-09-14"
"398",398,"Statistical Programming DC","Washington","USA","US/Canada",6075,"https://www.meetup.com/stats-prog-dc/","2009-08-10",75,1,"public","2019-08-13"
"399",399,"UseR!Kin","Kinshasa","Congo (Dem. Rep.)","Africa",11,"https://www.meetup.com/user-kin/","2019-03-11",0,0,"public","1970-01-01"
"401",401,"rMoscow","Moscow","Russia","Europe",529,"https://www.meetup.com/rMoscow/","2014-06-16",6,0,"public","2019-04-20"
"402",402,"R-Ladies Santa Fe","Santa Fe","Argentina","Latin America",160,"https://www.meetup.com/rladies-santa-fe/","2018-05-08",10,0,"public","2019-08-08"
"404",404,"R-Ladies La Paz","La Paz","Bolivia","Latin America",80,"https://www.meetup.com/rladies-la-paz/","2018-10-23",2,0,"public","2019-03-09"
"405",405,"Raleigh-Durham-Chapel Hill R Users Group","Chapel Hill","USA","US/Canada",769,"https://www.meetup.com/Triangle-useR/","2010-08-16",38,0,"public","2016-03-12"
"406",406,"R-Ladies Ushuaia","Ushuaia","Argentina","Latin America",24,"https://www.meetup.com/rladies-ushuaia/","2018-05-09",1,0,"public","2018-05-22"
"409",409,"Birmingham R User Group (R Programming Language)","Birmingham","United Kingdom","Europe",588,"https://www.meetup.com/BirminghamR/","2011-12-05",18,0,"public","2019-09-26"
"411",411,"Eugene R Users","Eugene","USA","US/Canada",102,"https://www.meetup.com/meetup-group-cwPiAlnB/","2017-12-13",11,0,"public","2019-09-18"
"412",412,"Manchester R user Group","Manchester","United Kingdom","Europe",978,"https://www.meetup.com/Manchester-R/","2013-01-07",27,1,"public","2019-08-07"
"415",415,"Vienna<-R","Vienna","Austria","Europe",557,"https://www.meetup.com/ViennaR/","2011-10-29",39,0,"public","2019-06-27"
"416",416,"sonRaí","Galway","Ireland","Europe",130,"https://www.meetup.com/sonRai/","2018-02-16",4,0,"public","2019-06-07"
"418",418,"Stockholm R useR group (SRUG)","Stockholm","Sweden","Europe",1126,"https://www.meetup.com/StockholmR/","2012-07-23",33,0,"public","2019-06-13"
"419",419,"R-Ladies Resistencia-Corrientes","Corrientes","Argentina","Latin America",92,"https://www.meetup.com/rladies-resistencia-corrientes/","2018-06-08",6,0,"public_limited","2019-08-22"
"424",424,"R-Ladies Chicago","Chicago","USA","US/Canada",985,"https://www.meetup.com/rladies-chicago/","2017-07-05",29,0,"public","2019-09-26"
"425",425,"R-Ladies Adelaide","Adelaide","Australia","Australia",276,"https://www.meetup.com/rladies-adelaide/","2017-02-02",8,2,"public","2019-09-25"
"426",426,"R-Ladies Natal","Natal","Brazil","Latin America",137,"https://www.meetup.com/rladies-natal/","2017-09-25",3,0,"public_limited","2018-06-18"
"428",428,"Campus useR Group Frankfurt","Frankfurt","Germany","Europe",112,"https://www.meetup.com/r-frankfurt/","2019-01-24",5,1,"public","2019-08-19"
"430",430,"Buffalo R","Buffalo","USA","US/Canada",30,"https://www.meetup.com/Buffalo-R/","2019-06-27",0,1,"public","1970-01-01"
"433",433,"R-Ladies Vancouver","Vancouver","Canada","US/Canada",358,"https://www.meetup.com/rladies-vancouver/","2017-10-06",14,2,"public","2019-07-19"
"434",434,"Poznanski Horyzont Danych","Poznan","Poland","Europe",174,"https://www.meetup.com/Poznanski-Horyzont-Danych/","2019-03-04",1,0,"public","2019-04-04"
"437",437,"R-Ladies L'viv","L'viv","Ukraine","Europe",14,"https://www.meetup.com/rladies-lviv/","2019-08-31",2,1,"public","2019-09-19"
"438",438,"R-Ladies Boulder","Boulder","USA","US/Canada",75,"https://www.meetup.com/rladies-boulder/","2018-06-11",1,0,"public","2019-09-11"
"439",439,"R-Ladies Santiago","Santiago","Chile","Latin America",1428,"https://www.meetup.com/rladies-scl/","2017-07-18",23,0,"public","2019-09-16"
"440",440,"R-Ladies Montpellier","Montpellier","France","Europe",112,"https://www.meetup.com/rladies-montpellier/","2018-10-17",6,0,"public","2019-07-02"
"441",441,"UseRS","Porto Alegre","Brazil","Latin America",625,"https://www.meetup.com/UseRS_/","2015-12-22",11,0,"public","2019-07-31"
"444",444,"R-Ladies Philly","Philadelphia","USA","US/Canada",707,"https://www.meetup.com/rladies-philly/","2017-10-11",29,2,"public","2019-09-24"
"445",445,"R-Ladies Sydney","Sydney","Australia","Australia",650,"https://www.meetup.com/rladies-sydney/","2018-05-09",22,2,"public","2019-09-10"
"446",446,"R-Ladies Xalapa","Xalapa","Mexico","Latin America",188,"https://www.meetup.com/rladies-xalapa/","2018-07-30",9,0,"public_limited","2019-09-28"
"447",447,"R-Ladies Toronto","Toronto","Canada","US/Canada",430,"https://www.meetup.com/rladies-toronto/","2018-09-18",4,1,"public","2019-07-18"
"448",448,"R-Ladies Brisbane","Brisbane","Australia","Australia",193,"https://www.meetup.com/rladies-brisbane/","2018-05-10",6,1,"public","2019-09-03"
"449",449,"R-Ladies Tucson AZ","Tucson","USA","US/Canada",223,"https://www.meetup.com/rladies-tucson-az/","2017-11-14",8,1,"public","2019-09-07"
"450",450,"R-Ladies Auckland","Auckland","New Zealand","Australia",540,"https://www.meetup.com/rladies-auckland/","2017-11-20",16,1,"public","2019-08-21"
"451",451,"Grupo de Usuarios de R en Chile","Santiago","Chile","Latin America",1491,"https://www.meetup.com/useRchile/","2013-01-22",35,0,"public","2019-09-25"
"452",452,"R-Ladies Novi Sad","Novi Sad","Serbia","Europe",72,"https://www.meetup.com/rladies-novi-sad/","2019-05-24",2,0,"public","2019-09-28"
"453",453,"R-Ladies Charlottesville","Charlottesville","USA","US/Canada",164,"https://www.meetup.com/rladies-charlottesville/","2017-09-21",16,0,"public","2019-09-26"
"454",454,"R-Ladies Christchurch","Christchurch","New Zealand","Australia",62,"https://www.meetup.com/rladies-christchurch/","2019-05-04",4,1,"public","2019-09-10"
"456",456,"R-Ladies Santa Rosa","Santa Rosa","Argentina","Latin America",40,"https://www.meetup.com/rladies-santa-rosa/","2017-04-06",10,0,"public","2019-09-13"
"457",457,"R Addicts Paris","Paris","France","Europe",1652,"https://www.meetup.com/rparis/","2013-03-21",24,0,"public","2019-06-28"
"458",458,"R-Ladies Wageningen","Wageningen","Netherlands","Europe",56,"https://www.meetup.com/rladies-wageningen/","2018-06-18",2,0,"public","2018-12-13"
"459",459,"R-Ladies Liverpool","Liverpool","United Kingdom","Europe",62,"https://www.meetup.com/rladies-liverpool/","2017-10-29",1,0,"public","2017-11-30"
"461",461,"R-Ladies Goiânia","Goiania","Brazil","Latin America",40,"https://www.meetup.com/rladies-goiania/","2019-05-06",0,0,"public","1970-01-01"
"462",462,"São Paulo R Users Group","São Paulo","Brazil","Latin America",1972,"https://www.meetup.com/useR-SP/","2015-05-30",24,0,"public_limited","2016-12-23"
"463",463,"R-Ladies Porto Alegre","Porto Alegre","Brazil","Latin America",275,"https://www.meetup.com/rladies-porto-alegre/","2017-10-30",5,0,"public","2019-06-17"
"464",464,"R-Ladies Montevideo","Montevideo","Uruguay","Latin America",209,"https://www.meetup.com/rladies-montevideo/","2017-06-02",9,0,"public","2019-05-29"
"467",467,"Medellín R Users Group","Medellín","Colombia","Latin America",199,"https://www.meetup.com/meetup-group-XAHidokx/","2019-04-05",1,0,"public","2019-06-29"
"470",470,"R-Ladies Sarasota","Sarasota","USA","US/Canada",37,"https://www.meetup.com/rladies-sarasota/","2017-10-13",4,0,"public","2018-03-26"
"471",471,"Chiang Mai R Users Group","Chiang Mai","Thailand","Asia",73,"https://www.meetup.com/ChiangMaiR/","2015-04-14",0,0,"public","1970-01-01"
"476",476,"R-Ladies Niterói","Niterói","Brazil","Latin America",421,"https://www.meetup.com/rladies-niteroi/","2018-06-04",6,0,"public","2019-09-27"
"477",477,"R-Ladies San Francisco","San Francisco","USA","US/Canada",1477,"https://www.meetup.com/rladies-san-francisco/","2012-10-01",55,1,"public","2019-08-08"
"478",478,"R-Ladies Perth","Perth","Australia","Australia",182,"https://www.meetup.com/rladies-perth/","2018-10-23",5,5,"public","2019-09-04"
"479",479,"R-Ladies Edinburgh","Edinburgh","United Kingdom","Europe",236,"https://www.meetup.com/rladies-edinburgh/","2018-07-27",5,0,"public","2019-09-26"
"480",480,"R-Ladies Stockholm","Stockholm","Sweden","Europe",290,"https://www.meetup.com/rladies-stockholm/","2018-08-16",5,1,"public","2019-06-15"
"481",481,"R-Ladies Belgrade","Belgrade","Serbia","Europe",342,"https://www.meetup.com/rladies-belgrade/","2017-09-15",16,0,"public","2019-09-11"
"482",482,"R-Ladies Kyiv","Kyiv","Ukraine","Europe",163,"https://www.meetup.com/rladies-kyiv/","2019-02-15",8,1,"public","2019-09-25"
"483",483,"BaselR","Basel","Switzerland","Europe",450,"https://www.meetup.com/BaselR/","2010-04-13",22,0,"public_limited","2019-09-25"
"484",484,"R-Ladies Copenhagen","Copenhagen","Denmark","Europe",404,"https://www.meetup.com/rladies-copenhagen/","2017-11-20",9,0,"public","2019-09-26"
"485",485,"R-Ladies Bucharest","Bucharest","Romania","Europe",40,"https://www.meetup.com/rladies-bucharest/","2019-05-09",1,0,"public","2019-09-17"
"486",486,"R-Ladies Columbus","Columbus","USA","US/Canada",712,"https://www.meetup.com/rladies-columbus/","2016-10-04",28,0,"public","2019-09-12"
"487",487,"R-Ladies Rotterdam","Rotterdam","Netherlands","Europe",346,"https://www.meetup.com/rladies-rotterdam/","2017-12-05",11,0,"public","2019-09-13"
"488",488,"R-Ladies Twin Cities","Minneapolis","USA","US/Canada",315,"https://www.meetup.com/rladies-tc/","2015-04-01",34,3,"public","2019-09-18"
"489",489,"R-Ladies London","London","United Kingdom","Europe",1425,"https://www.meetup.com/rladies-london/","2016-01-31",49,0,"public","2019-09-12"
"490",490,"We R","London","United Kingdom","Europe",383,"https://www.meetup.com/WeR-stats/","2017-03-15",13,1,"public_limited","2019-08-28"
"491",491,"R-Ladies Cambridge","Cambridge","United Kingdom","Europe",153,"https://www.meetup.com/rladies-cambridge/","2017-11-10",1,0,"public","2019-09-13"
"492",492,"R-Ladies Budapest","Budapest","Hungary","Europe",785,"https://www.meetup.com/rladies-budapest/","2017-01-24",29,1,"public","2019-09-05"
"493",493,"R-Ladies Riverside","Riverside","USA","US/Canada",32,"https://www.meetup.com/rladies-riverside/","2019-08-02",0,1,"public","1970-01-01"
"494",494,"R-Ladies Miami","Miami","USA","US/Canada",393,"https://www.meetup.com/rladies-miami/","2017-06-03",13,1,"public","2019-09-28"
"495",495,"R-Ladies Iowa City","Iowa City","USA","US/Canada",83,"https://www.meetup.com/rladies-iowa-city/","2018-09-18",4,1,"public","2019-09-12"
"497",497,"R-Ladies Kathmandu","Kathmandu","Nepal","Asia",57,"https://www.meetup.com/rladies-kathmandu/","2018-10-01",3,0,"public","2019-08-31"
"498",498,"R-Ladies Irvine","Irvine","USA","US/Canada",311,"https://www.meetup.com/rladies-irvine/","2018-03-13",11,1,"public","2019-08-09"
"499",499,"R@Minho","Braga","Portugal","Europe",43,"https://www.meetup.com/R-Minho/","2015-10-06",0,0,"public","1970-01-01"
"500",500,"R-Ladies Lyon","Lyon","France","Europe",58,"https://www.meetup.com/rladies-lyon/","2018-10-29",2,0,"public","2019-04-15"
"501",501,"R-Ladies Munich","München","Germany","Europe",264,"https://www.meetup.com/rladies-munich/","2017-03-21",7,0,"public","2018-07-31"
"502",502,"R-Ladies Vienna","Vienna","Austria","Europe",198,"https://www.meetup.com/rladies-vienna/","2018-09-17",9,0,"public","2019-07-02"
"503",503,"R-Ladies Utrecht","Utrecht","Netherlands","Europe",87,"https://www.meetup.com/rladies-utrecht/","2019-06-10",1,0,"public","2019-08-29"
"504",504,"trigeR - Trójmiejska Grupa Entuzjastów R","Gdansk","Poland","Europe",278,"https://www.meetup.com/Trojmiejska-Grupa-Entuzjastow-R/","2016-12-14",14,0,"public","2018-05-29"
"508",508,"R-Ladies Highland Park","Highland Park","USA","US/Canada",55,"https://www.meetup.com/rladies-highland-park/","2019-05-09",2,0,"public","2019-08-20"
"509",509,"R-Ladies Des Moines","Des Moines","USA","US/Canada",26,"https://www.meetup.com/rladies-des-moines/","2018-09-23",4,0,"public","2019-05-20"
"510",510,"R-Ladies Houston","Houston","USA","US/Canada",70,"https://www.meetup.com/rladies-houston/","2018-12-07",0,0,"public","1970-01-01"
"511",511,"ShenzhenR","Las Vegas","USA","US/Canada",12,"https://www.meetup.com/ShenzhenR/","2017-12-07",0,0,"public","1970-01-01"
"512",512,"R, ML and AI in Sydney","Sydney","Australia","Australia",183,"https://www.meetup.com/R-ML-and-AI-in-Sydney/","2019-01-12",0,0,"public","1970-01-01"
"513",513,"R-Ladies Melbourne","Melbourne","Australia","Australia",1301,"https://www.meetup.com/rladies-melbourne/","2016-09-02",48,0,"public","2019-09-26"
"514",514,"R Glasgow","Glasgow","United Kingdom","Europe",121,"https://www.meetup.com/RGlasgow/","2019-04-24",1,1,"public","2019-06-12"
"515",515,"R-Ladies Montreal","Montréal","Canada","US/Canada",427,"https://www.meetup.com/rladies-montreal/","2017-09-14",13,2,"public","2019-09-19"
"516",516,"R-Ladies Ottawa","Ottawa","Canada","US/Canada",126,"https://www.meetup.com/rladies-ottawa/","2018-12-05",2,1,"public","2019-06-13"
"517",517,"R-Ladies Nijmegen","Nijmegen","Netherlands","Europe",227,"https://www.meetup.com/rladies-nijmegen/","2018-05-05",6,0,"public","2019-09-19"
"519",519,"R para utilizadores Excel Lisboa","Lisbon","Portugal","Europe",41,"https://www.meetup.com/R-para-utilizadores-Excel-Lisboa/","2019-06-04",1,0,"public","2019-09-19"
"520",520,"R-Ladies Freiburg","Freiburg","Germany","Europe",66,"https://www.meetup.com/rladies-freiburg/","2019-01-23",8,1,"public","2019-09-04"
"522",522,"AthensR","Athens","Greece","Europe",185,"https://www.meetup.com/AthensR/","2015-04-16",0,0,"public","1970-01-01"
"523",523,"R-Ladies Montenegro","HN","Montenegro","Europe",90,"https://www.meetup.com/rladies-montenegro/","2017-07-27",1,0,"public","2017-08-25"
"524",524,"R-Ladies Brussels","Brussels","Belgium","Europe",218,"https://www.meetup.com/rladies-brussels/","2017-08-15",10,0,"public","2019-03-30"
"525",525,"R-Ladies Leuven","Leuven","Belgium","Europe",90,"https://www.meetup.com/rladies-leuven/","2017-10-30",4,0,"public","2018-04-11"
"526",526,"R-Ladies Exeter","Exeter","United Kingdom","Europe",12,"https://www.meetup.com/rladies-exeter/","2019-02-27",0,0,"public","1970-01-01"
"528",528,"R-Ladies Chennai","Chennai","India","Asia",320,"https://www.meetup.com/rladies-chennai/","2017-10-15",5,0,"public","2019-03-05"
"529",529,"R-Ladies Orlando","Orlando","USA","US/Canada",329,"https://www.meetup.com/rladies-orlando/","2017-06-05",17,0,"public","2019-05-29"
"530",530,"R-Ladies Remote","San Francisco","USA","US/Canada",237,"https://www.meetup.com/rladies-remote/","2018-06-19",8,0,"public","2019-04-16"
"531",531,"R-Ladies Oslo","Oslo","Norway","Europe",327,"https://www.meetup.com/rladies-oslo/","2018-02-26",5,3,"public","2019-03-18"
"532",532,"R-Ladies Valparaíso","Valparaíso","Chile","Latin America",111,"https://www.meetup.com/rladies-valparaiso/","2018-05-18",2,0,"public","2019-08-30"
"533",533,"R-Ladies Tiruchirappalli","Tiruchchirappalli","India","Asia",168,"https://www.meetup.com/rladies-tiruchirappalli/","2018-03-03",1,0,"public","2018-05-12"
"616",616,"R-Ladies East Lansing","East Lansing","USA","US/Canada",350,"https://www.meetup.com/rladies-eastlansing/","2017-12-09",14,2,"public","2019-09-23"
"622",622,"R-Ladies PDX","Portland","USA","US/Canada",236,"https://www.meetup.com/rladies-pdx/","2017-07-20",14,0,"public","2019-08-06"
"633",633,"New York City R/Bioconductor for Genomics","New York","USA","US/Canada",783,"https://www.meetup.com/BiocNYC/","2017-09-05",15,0,"public","2019-06-24"
"634",634,"R-Ladies Lima","Lima","Peru","Latin America",952,"https://www.meetup.com/rladies-lima/","2018-01-25",7,0,"public","2019-09-05"
"635",635,"Tallinn R Users Group","Tallinn","Estonia","Europe",59,"https://www.meetup.com/r-tallinn/","2019-08-16",1,0,"public","2019-09-24"
"636",636,"R-Ladies San Jose","San Jose","Costa Rica","Latin America",424,"https://www.meetup.com/rladies-san-jose/","2017-10-09",16,0,"public","2019-09-26"
"639",639,"R-Ladies Madrid","Madrid","Spain","Europe",1272,"https://www.meetup.com/rladies-madrid/","2016-09-02",31,0,"public","2019-09-18"
"640",640,"R-Ladies Barcelona","Barcelona","Spain","Europe",411,"https://www.meetup.com/rladies-barcelona/","2016-10-22",13,0,"public","2019-09-16"
"642",642,"The East Bay R Language Enthusiasts Group","Oakland","USA","US/Canada",1760,"https://www.meetup.com/r-enthusiasts/","2012-01-28",91,0,"public","2019-06-05"
"643",643,"R-Ladies Lisboa","Lisbon","Portugal","Europe",507,"https://www.meetup.com/rladies-lisboa/","2016-10-26",9,0,"public","2018-06-07"
"644",644,"R-Ladies Guayaquil","Guayaquil","Ecuador","Latin America",325,"https://www.meetup.com/rladies-guayaquil/","2018-04-05",3,0,"public","2018-12-11"
"648",648,"R-Ladies Frankfurt","Frankfurt","Germany","Europe",80,"https://www.meetup.com/rladies-frankfurt/","2019-02-27",6,0,"public","2019-09-12"
"649",649,"R-Ladies Amsterdam","Amsterdam","Netherlands","Europe",631,"https://www.meetup.com/rladies-amsterdam/","2018-02-10",13,1,"public","2019-08-06"
"650",650,"R-Ladies Newcastle","Newcastle Upon Tyne","United Kingdom","Europe",169,"https://www.meetup.com/rladies-newcastle/","2019-02-27",5,2,"public","2019-09-03"
"651",651,"R-Ladies Baltimore","Baltimore","USA","US/Canada",342,"https://www.meetup.com/rladies-baltimore/","2018-02-26",8,6,"public","2019-09-18"
"652",652,"R-Ladies Loughborough","Loughborough","United Kingdom","Europe",64,"https://www.meetup.com/rladies-loughborough/","2018-02-10",6,0,"public","2018-10-09"
"654",654,"R-Ladies Manchester","Manchester","United Kingdom","Europe",397,"https://www.meetup.com/rladies-manchester/","2016-11-29",15,1,"public","2019-08-06"
"655",655,"R-Ladies Lancaster","Lancaster","United Kingdom","Europe",93,"https://www.meetup.com/rladies-lancaster/","2018-09-12",4,1,"public","2019-09-04"
"656",656,"R-Ladies San Diego","San Diego","USA","US/Canada",448,"https://www.meetup.com/rladies-san-diego/","2017-06-16",25,0,"public","2019-09-27"
"657",657,"R-Ladies Johannesburg","Johannesburg","South Africa","Africa",418,"https://www.meetup.com/rladies-johannesburg/","2018-02-26",13,1,"public","2019-08-27"
"658",658,"R-Ladies Tampa","Tampa","USA","US/Canada",201,"https://www.meetup.com/rladies-tampa/","2018-03-11",15,2,"public","2019-09-14"
"659",659,"R-Ladies Rabat","Rabat","Morocco","Africa",544,"https://www.meetup.com/rladies-rabat/","2018-03-01",3,0,"public","2018-07-21"
"660",660,"R-Ladies Lausanne","Lausanne","Switzerland","Europe",288,"https://www.meetup.com/rladies-lausanne/","2017-12-02",11,0,"public","2019-07-02"
"661",661,"R-Ladies Curitiba","Curitiba","Brazil","Latin America",178,"https://www.meetup.com/rladies-curitiba/","2018-05-29",1,0,"public","2018-06-16"
"663",663,"R-Ladies Bilbao","Bilbao","Spain","Europe",87,"https://www.meetup.com/rladies-bilbao/","2019-02-27",2,0,"public","2019-09-19"
"664",664,"BernR","Bern","Switzerland","Europe",124,"https://www.meetup.com/Bern-R/","2018-11-08",10,3,"public","2019-09-09"
"666",666,"R-Ladies Ames","Ames","USA","US/Canada",191,"https://www.meetup.com/rladies-ames/","2016-11-25",59,1,"public","2019-05-07"
"667",667,"Ciencia de Datos con R","Buenos Aires","Argentina","Latin America",1176,"https://www.meetup.com/meetup-group-ZtqriXwa/","2017-06-29",7,0,"public","2019-09-20"
"668",668,"R-Ladies Canberra","Canberra","Australia","Australia",168,"https://www.meetup.com/rladies-canberra/","2018-12-10",7,2,"public","2019-09-18"
"669",669,"R-Ladies Taipei","Taipei","Taiwan","Asia",1571,"https://www.meetup.com/rladies-taipei/","2016-10-23",42,1,"public","2019-08-26"
"670",670,"Komunitas R Indonesia","Jakarta","Indonesia","Asia",782,"https://www.meetup.com/r-indonesia/","2019-04-28",8,0,"public","2019-09-11"
"671",671,"R-Ladies Nashville","Nashville","USA","US/Canada",476,"https://www.meetup.com/rladies-nashville/","2016-09-28",17,0,"public","2019-09-16"
"672",672,"R-Ladies Cape Town","Cape Town","South Africa","Africa",527,"https://www.meetup.com/rladies-cape-town/","2017-03-06",20,0,"public","2019-09-17"
"673",673,"Göttingen R User Group","Göttingen","Germany","Europe",33,"https://www.meetup.com/Gottingen-Software-Development-Meetup/","2019-02-05",0,1,"public","1970-01-01"
"674",674,"R en Rosario","Rosario","Argentina","Latin America",182,"https://www.meetup.com/R-en-Rosario/","2018-10-03",6,0,"public","2019-09-20"
"675",675,"R-Ladies El Paso","El Paso","USA","US/Canada",18,"https://www.meetup.com/rladies-el-paso/","2019-04-19",1,1,"public","2019-09-18"
"677",677,"R-Ladies Santa Barbara","Santa Barbara","USA","US/Canada",293,"https://www.meetup.com/rladies-santa-barbara/","2018-01-26",7,0,"public","2019-05-16"
"678",678,"EdinbR: The Edinburgh R Usergroup","Edinburgh","United Kingdom","Europe",301,"https://www.meetup.com/EdinbR/","2018-09-16",10,0,"public","2019-09-25"
"679",679,"R-Ladies Paris","Paris","France","Europe",539,"https://www.meetup.com/rladies-paris/","2016-09-19",15,0,"public","2019-06-14"
"680",680,"R-Ladies Mendoza","Mendoza","Argentina","Latin America",175,"https://www.meetup.com/rladies-mendoza/","2018-02-26",8,0,"public","2019-06-18"
"681",681,"R-Ladies Pasadena","Pasadena","USA","US/Canada",73,"https://www.meetup.com/rladies-pasadena/","2018-04-25",4,0,"public","2019-07-18"
"682",682,"R-Ladies Cincinnati","Cincinnati","USA","US/Canada",70,"https://www.meetup.com/rladies-cincinnati/","2018-05-24",1,0,"public","2018-07-17"
"684",684,"adminR: R in Swiss Official Statistics","Bern","Switzerland","Europe",217,"https://www.meetup.com/adminR/","2018-08-19",3,0,"public","2019-09-19"
"686",686,"R-Ladies Recife","Recife","Brazil","Latin America",126,"https://www.meetup.com/rladies-recife/","2019-09-02",1,0,"public","2019-09-12"
"688",688,"R en Buenos Aires","Buenos Aires","Argentina","Latin America",343,"https://www.meetup.com/renbaires/","2018-10-04",5,0,"public","2019-08-13"
"695",695,"MünsteR (R Users Group)","Münster","Germany","Europe",505,"https://www.meetup.com/Munster-R-Users-Group/","2017-05-16",12,0,"public_limited","2019-09-03"
"699",699,"Akure R user group","Akure","Nigeria","Africa",295,"https://www.meetup.com/Akure-R-user-group/","2018-03-03",14,0,"public","2019-07-01"
"701",701,"Bauchi R User Group (BauchiRUG)","Bauchi","Nigeria","Africa",110,"https://www.meetup.com/Bauchi-R-User-Group-BauchiRUG/","2018-07-04",4,0,"public","2019-09-17"
"703",703,"Düsseldorf R User Group","Düsseldorf","Germany","Europe",47,"https://www.meetup.com/Dusseldorf-R-User-Group/","2019-07-24",0,1,"public","1970-01-01"
"704",704,"Bristol R User Group","Bristol","United Kingdom","Europe",331,"https://www.meetup.com/Bristol-R-User-Group/","2018-10-03",4,0,"public","2019-08-20"
"705",705,"Use R! INMEGEN 2019","México City","Mexico","Latin America",229,"https://www.meetup.com/Use-R-INMEGEN-2019/","2018-10-04",1,0,"public","2019-02-25"
"707",707,"Stellenbosch R Users Group Meetup","Stellenbosch","South Africa","Africa",16,"https://www.meetup.com/Stellenbosch-R-Users-Group-Meetup/","2018-12-20",0,0,"public","1970-01-01"
"708",708,"Bluenose-R - User Group","Halifax","Canada","US/Canada",146,"https://www.meetup.com/Bluenose-R-User-Group/","2018-03-27",7,0,"public","2019-06-20"
"709",709,"Predictive Business Analytics with R - New Delhi","Delhi","India","Asia",1593,"https://www.meetup.com/Predictive-Business-Analytics-with-R-New-Delhi/","2014-08-31",7,0,"public","2016-04-23"
"710",710,"Omaha R Users Group","Omaha","USA","US/Canada",189,"https://www.meetup.com/Omaha-R-Users-Group/","2018-03-05",4,0,"public","2019-04-04"
"712",712,"Hyderabad R Programming Meetup","Hyderabad","India","Asia",291,"https://www.meetup.com/Hyderabad-R-Programming-Meetup/","2014-09-11",0,1,"public","1970-01-01"
"713",713,"MapR Users Meetup","Makati","Philippines","Asia",139,"https://www.meetup.com/MapR-Users-Meetup/","2018-03-18",1,0,"public","2018-05-16"
"715",715,"Predictive Business Analytics using R","Buenos Aires","Argentina","Latin America",120,"https://www.meetup.com/Predictive-Business-Analytics-using-R/","2015-06-21",2,0,"public","2015-07-10"
"720",720,"Salt Lake City R Language Study Group","Salt Lake City","USA","US/Canada",246,"https://www.meetup.com/Salt-Lake-City-R-Language-Study-Group/","2018-04-05",28,1,"public","2019-09-07"
"721",721,"Wroclaw R user Group - WRUG","Wroclaw","Poland","Europe",36,"https://www.meetup.com/Wroclaw-R-user-Group-WRUG/","2013-04-14",1,0,"public","2013-06-20"
"722",722,"R User Group Rhein-Neckar","Heidelberg","Germany","Europe",259,"https://www.meetup.com/R-User-Group-Rhein-Neckar/","2011-11-01",32,0,"public","2019-08-13"
"724",724,"R-Ladies Washington D.C.","Washington","USA","US/Canada",1547,"https://www.meetup.com/rladies-dc/","2016-12-07",40,3,"public","2019-08-13"
"726",726,"Dublin R","Dublin","Ireland","Europe",2199,"https://www.meetup.com/DublinR/","2011-11-04",158,1,"public","2018-06-30"
"727",727,"Bogotá R Users Group","Bogotá","Colombia","Latin America",1416,"https://www.meetup.com/Bogota-R-Users-Group/","2013-09-18",21,1,"public","2019-05-25"
"728",728,"MadR - Madison R Programming UseRs Group","Madison","USA","US/Canada",589,"https://www.meetup.com/MadR-Madison-R-Programming-UseRs-Group/","2014-01-10",43,0,"public","2019-09-26"
"729",729,"R Users Group Kenya (RUGK)","Nairobi","Kenya","Africa",79,"https://www.meetup.com/R-Users-Group-Kenya-RUGK/","2014-08-29",0,0,"public","1970-01-01"
"730",730,"R-Ladies Buffalo","Buffalo","USA","US/Canada",28,"https://www.meetup.com/rladies-buffalo/","2017-05-28",2,1,"public","2019-07-19"
"731",731,"Seattle useR Group (R Programming Language)","Seattle","USA","US/Canada",2476,"https://www.meetup.com/Seattle-useR/","2009-12-12",69,2,"public","2019-09-27"
"732",732,"Houston R Users Group","Houston","USA","US/Canada",1399,"https://www.meetup.com/houstonr/","2010-11-01",74,2,"public","2019-09-28"
"733",733,"Canberra R Users Group","Canberra","Australia","Australia",308,"https://www.meetup.com/Canberra-R-Users-Group/","2010-07-19",33,0,"public","2017-07-24"
"734",734,"R-Ladies RTP","Durham","USA","US/Canada",648,"https://www.meetup.com/rladies-rtp/","2016-08-15",39,1,"public","2019-09-09"
"736",736,"Hamburg R User Group","Hamburg","Germany","Europe",756,"https://www.meetup.com/Hamburg-R-User-Group/","2014-09-20",19,0,"public","2019-09-17"
"737",737,"R-Ladies Los Angeles","Los Angeles","USA","US/Canada",405,"https://www.meetup.com/rladies-la/","2016-09-02",21,1,"public","2019-09-21"
"738",738,"R-Ladies IzmiR","Izmir","Turkey","Europe",779,"https://www.meetup.com/rladies-izmir/","2016-10-09",1,0,"public","2017-02-22"
"739",739,"XMU-R","Xiamen","China","Asia",230,"https://www.meetup.com/RGROUP/","2014-09-11",22,0,"public","2015-01-12"
"740",740,"Brasília UseR Meetup (Linguagem de Programação ""R"")","Brasília","Brazil","Latin America",560,"https://www.meetup.com/Brasilia-UseR-Meetup/","2015-07-05",5,0,"public","2017-09-26"
"741",741,"R Users Group Hyderabad(RUGH)","Hyderabad","India","Asia",504,"https://www.meetup.com/R-Users-Group-Hyderabad/","2013-09-15",5,0,"public","2018-01-27"
"742",742,"Chicago North West Suburbs R user group","Northbrook","USA","US/Canada",50,"https://www.meetup.com/Chicago-North-West-Suburbs-R-user-group/","2015-07-15",2,0,"public","2015-08-06"
"743",743,"Köln R User Group","Köln","Germany","Europe",950,"https://www.meetup.com/KoelnRUG/","2012-03-30",28,1,"public","2019-09-20"
"745",745,"R-Ladies Hartford","Hartford","USA","US/Canada",69,"https://www.meetup.com/rladies-hartford/","2016-11-09",1,0,"public","2017-02-24"
"746",746,"R-Ladies Madison","Madison","USA","US/Canada",50,"https://www.meetup.com/R-Ladies-Madison/","2019-04-30",3,0,"public","2019-09-05"
"747",747,"R-Ladies CDMX","México City","Mexico","Latin America",1283,"https://www.meetup.com/rladies-cdmx/","2017-07-04",9,0,"public","2019-09-25"
"748",748,"R-Ladies Rio de Janeiro","Rio de Janeiro","Brazil","Latin America",422,"https://www.meetup.com/rladies-rio/","2017-02-27",4,1,"public","2018-06-07"
"749",749,"R-Ladies St. Louis","Saint Louis","USA","US/Canada",361,"https://www.meetup.com/rladies-st-louis/","2017-08-28",9,5,"public","2019-04-19"
"750",750,"R-Ladies Berlin","Berlin","Germany","Europe",536,"https://www.meetup.com/rladies-berlin/","2016-10-31",25,0,"public","2019-08-27"
"751",751,"R-Ladies Tbilisi","Tbilisi","Georgia","Asia",138,"https://www.meetup.com/rladies-tbilisi/","2016-11-29",46,0,"public","2019-04-11"
"752",752,"Lads and Lasses Who R","Merrifield","USA","US/Canada",221,"https://www.meetup.com/Lads-and-Lasses-Who-R/","2018-07-16",14,0,"public_limited","2019-09-17"
"753",753,"Pune  R users Meetup","Pune","India","Asia",207,"https://www.meetup.com/Pune-R-junkies-Meetup/","2014-11-30",0,1,"public","1970-01-01"
"754",754,"R-Ladies Seattle","Seattle","USA","US/Canada",611,"https://www.meetup.com/rladies-seattle/","2017-11-08",24,0,"public","2019-09-26"
"755",755,"R-Ladies Fayetteville","Fayetteville","USA","US/Canada",30,"https://www.meetup.com/rladies-fayetteville/","2019-07-27",0,1,"public","1970-01-01"
"756",756,"Taiwan R User Group / MLDM Monday","Taipei","Taiwan","Asia",6814,"https://www.meetup.com/Taiwan-R/","2012-09-28",328,0,"public","2019-09-23"
"757",757,"CinDay RUG","Dayton","USA","US/Canada",283,"https://www.meetup.com/CinDay-RUG/","2010-11-10",44,0,"public","2019-09-25"
"758",758,"Seoul R developers","Seoul","Korea (South)","Asia",83,"https://www.meetup.com/R-devops/","2017-03-04",1,0,"public","2017-03-09"
"759",759,"Hobart R Users Group","Hobart","Australia","Australia",335,"https://www.meetup.com/Hobart-R-Users-Group/","2010-10-25",29,0,"public","2017-08-10"
"760",760,"R-Ladies Strasbourg","Strasbourg","France","Europe",43,"https://www.meetup.com/rladies-strasbourg/","2017-09-27",8,0,"public","2019-06-14"
"761",761,"eRfahrungsaustausch zum Thema ""R"" in Esslingen","Esslingen","Germany","Europe",30,"https://www.meetup.com/eRfahrungsaustausch-zum-Thema-R-in-Esslingen/","2017-11-25",4,0,"public","2018-04-12"
"768",768,"Ha Noi R Users Group Meetup","Ha Noi","Vietnam","Asia",336,"https://www.meetup.com/Ha-Noi-R-Users-Group-Meetup/","2014-11-13",0,0,"public","1970-01-01"
"769",769,"RBelgium","Brussels","Belgium","Europe",747,"https://www.meetup.com/RBelgium/","2011-12-19",21,0,"public","2018-05-09"
"770",770,"Nijmegen eveRybody","Nijmegen","Netherlands","Europe",252,"https://www.meetup.com/Nijmegen-eveRybody/","2015-04-11",6,0,"public","2017-01-25"
"771",771,"RLyon","Lyon","France","Europe",132,"https://www.meetup.com/R-Lyon/","2013-11-19",6,0,"public","2016-03-18"
"780",780,"useR Group in San Luis Obispo County","San Luis Obispo","USA","US/Canada",64,"https://www.meetup.com/useR-Group-in-San-Luis-Obispo-County/","2019-03-18",15,2,"public","2019-09-27"
"785",785,"Delhi R Users Group Meetup","Delhi","India","Asia",115,"https://www.meetup.com/Delhi-R-Users-Group-Meetup/","2014-05-22",0,0,"public","1970-01-01"
"837",837,"R-Ladies Quito","Quito","Ecuador","Latin America",712,"https://www.meetup.com/rladies-quito/","2017-07-18",8,0,"public","2019-06-27"
"838",838,"R-Ladies Puebla","Puebla","Mexico","Latin America",56,"https://www.meetup.com/rladies-puebla/","2019-07-19",1,0,"public","2019-08-24"
"839",839,"R-Ladies Salvador","Salvador","Brazil","Latin America",153,"https://www.meetup.com/rladies-salvador/","2018-07-23",4,0,"public","2019-03-08"
"840",840,"R-Ladies New Delhi","Delhi","India","Asia",33,"https://www.meetup.com/rladies-new-delhi/","2019-09-01",0,0,"public","1970-01-01"
"841",841,"R-Ladies Athens","Athens","USA","US/Canada",6,"https://www.meetup.com/rladies-athens-ga/","2019-08-31",1,0,"public","2019-09-27"
"842",842,"R-Ladies Jakarta","Jakarta","Indonesia","Asia",208,"https://www.meetup.com/rladies-jakarta/","2019-07-06",3,0,"public","2019-09-21"
"843",843,"R-Ladies Gainesville","Gainesville","USA","US/Canada",212,"https://www.meetup.com/rladies-gainesville/","2018-07-04",12,1,"public","2019-09-09"
"844",844,"R-Ladies Atlanta","Atlanta","USA","US/Canada",226,"https://www.meetup.com/rladies-atlanta/","2017-12-14",4,1,"public","2019-04-30"
"845",845,"R-Ladies Addis Ababa","Addis Abeba","Ethiopia","Africa",391,"https://www.meetup.com/rladies-addis-ababa/","2018-03-21",16,0,"public","2019-09-10"
"846",846,"R-Ladies Lavras","Lavras","Brazil","Latin America",17,"https://www.meetup.com/rladies-lavras/","2019-04-16",1,0,"public","2019-05-31"
"847",847,"R-Ladies Louisville","Louisville","USA","US/Canada",43,"https://www.meetup.com/rladies-louisville/","2018-03-18",4,0,"public","2018-08-29"
"848",848,"R-Ladies Denver","Denver","USA","US/Canada",44,"https://www.meetup.com/rladies-denver/","2019-07-02",0,0,"public","1970-01-01"
"849",849,"R-Ladies Dallas","Dallas","USA","US/Canada",311,"https://www.meetup.com/rladies-dallas/","2018-03-04",13,0,"public","2019-09-16"
"850",850,"R-Ladies Helsinki","Helsinki","Finland","Europe",230,"https://www.meetup.com/rladies-helsinki/","2018-09-07",8,0,"public","2019-09-12"
"851",851,"R-Ladies Cotonou","Cotonou","Benin","Africa",35,"https://www.meetup.com/rladies-cotonou/","2018-03-29",1,0,"public","2019-07-27"
"852",852,"R-Ladies London, Ontario","London","Canada","US/Canada",410,"https://www.meetup.com/rladies-ldnont/","2017-01-17",22,1,"public","2019-05-30"
"853",853,"R-Ladies Boston","Boston","USA","US/Canada",725,"https://www.meetup.com/rladies-boston/","2016-09-16",34,1,"public","2019-09-19"
"854",854,"R-Ladies La Plata","La Plata","Argentina","Latin America",110,"https://www.meetup.com/rladies-la-plata/","2018-03-12",2,0,"public","2018-06-18"
"855",855,"R-Ladies São Paulo","São Paulo","Brazil","Latin America",517,"https://www.meetup.com/rladies-sao-paulo/","2018-02-10",12,0,"public","2019-09-12"
"856",856,"R-Ladies Dublin","Dublin","Ireland","Europe",716,"https://www.meetup.com/rladies-dublin/","2016-11-12",20,0,"public","2019-06-24"
"857",857,"R-Ladies Belo Horizonte","Belo Horizonte","Brazil","Latin America",671,"https://www.meetup.com/rladiesbh/","2018-04-20",9,1,"public","2019-09-28"
"858",858,"R-Ladies Milan","Milano","Italy","Europe",771,"https://www.meetup.com/rladies-milan/","2017-06-29",18,0,"public","2019-09-19"
"859",859,"R-Ladies New York","New York","USA","US/Canada",1537,"https://www.meetup.com/rladies-newyork/","2016-08-23",36,1,"public","2019-09-10"
"860",860,"R-Ladies Lexington Park","Lexington Park","USA","US/Canada",5,"https://www.meetup.com/rladies-lexington-park/","2019-08-16",0,0,"public","1970-01-01"
"861",861,"R-Ladies Cuernavaca","Cuernavaca","Mexico","Latin America",71,"https://www.meetup.com/rladies-cuernavaca/","2019-08-15",0,1,"public","1970-01-01"
"862",862,"R-Ladies Austin","Austin","USA","US/Canada",586,"https://www.meetup.com/rladies-austin/","2017-01-31",41,1,"public","2019-09-24"
"863",863,"R-Ladies Ankara","Ankara","Turkey","Europe",88,"https://www.meetup.com/rladies-ankara/","2019-07-01",0,0,"public","1970-01-01"
"864",864,"R-Ladies Den Bosch","Den Bosch","Netherlands","Europe",32,"https://www.meetup.com/rladies-den-bosch/","2019-03-23",1,0,"public","2019-09-11"
"865",865,"R-Ladies Bogor","Bogor","Indonesia","Asia",217,"https://www.meetup.com/rladies-bogor/","2019-04-07",5,0,"public","2019-09-14"
"866",866,"R-Ladies Podgorica","Podgorica","Montenegro","Europe",8,"https://www.meetup.com/rladies-podgorica/","2019-09-18",0,0,"public","1970-01-01"
"867",867,"R-Ladies Medellín","Medellín","Colombia","Latin America",2,"https://www.meetup.com/rladies-medellin/","2019-09-28",0,0,"public","1970-01-01"
"868",868,"R-Ladies Calgary","Calgary","Canada","US/Canada",26,"https://www.meetup.com/rladies-calgary/","2019-09-14",0,0,"public","1970-01-01"
"869",869,"R-Ladies Nelson","Nelson","New Zealand","Australia",10,"https://www.meetup.com/rladies-nelson/","2019-03-23",0,0,"public","1970-01-01"
"870",870,"R-Ladies Floripa","Florianópolis","Brazil","Latin America",282,"https://www.meetup.com/rladies-florianopolis/","2019-04-07",5,0,"public","2019-09-24"
"871",871,"R-Ladies Lagos","Lagos","Nigeria","Africa",72,"https://www.meetup.com/rladies-lagos/","2019-08-16",1,0,"public","2019-09-21"
"872",872,"R-Ladies Queretaro","Querétaro","Mexico","Latin America",138,"https://www.meetup.com/rladies-queretaro/","2019-03-30",3,0,"public","2019-09-20"
"873",873,"R-Ladies Pachuca","Pachuca","Mexico","Latin America",5,"https://www.meetup.com/rladies-pachuca/","2019-09-15",0,0,"public","1970-01-01"
"874",874,"R-Ladies Concepción","Concepción","Chile","Latin America",173,"https://www.meetup.com/rladies-concepcion/","2019-04-16",8,1,"public","2019-09-05"
"875",875,"R-Ladies Bogotá","Bogotá","Colombia","Latin America",263,"https://www.meetup.com/rladies-bogota/","2017-09-22",6,0,"public","2019-03-07"